{
  "norad_id": 39533,
  "name": "NAVSTAR 69 (USA 248)",
  "history": [
    {
      "epoch": "2026-03-28T09:54:53.470368Z",
      "apogee_km": 20403.691177749937,
      "perigee_km": 19962.329901315035,
      "latitude_deg": 2.0529987651291717e-05,
      "longitude_deg": 178.0696765906069,
      "height_km": 20326.72642582194,
      "semi_major_axis_km": 26561.147539532485,
      "eccentricity": 0.0083084,
      "inclination_deg": 53.6397,
      "raan_deg": 152.6153,
      "arg_perigee_deg": 229.1635,
      "mean_anomaly_deg": 130.1722,
      "mean_motion_rev_day": 2.00554546
    }
  ]
}